      2.10          N: GNSS NAV DATA                        RINEX VERSION / TYPE
fic2rin                                 09/10/2019 00:19:25 PGM / RUN BY / DATE
                                                            END OF HEADER
20 19  9  9 11 59 44.0 5.268012173474e-04 1.136868377216e-13 0.000000000000e+00
    6.000000000000e+00-9.250000000000e+01 4.954849246502e-09 3.296647285220e-01
   -5.012378096581e-06 4.812463186681e-03 9.778887033463e-06 5.153628257751e+03
    1.295840000000e+05 7.264316082001e-08 2.342955758906e+00-4.842877388000e-08
    9.317155080222e-01 1.798750000000e+02 2.427165880538e+00-8.257129656879e-09
   -1.128618440060e-10 1.000000000000e+00 2.070000000000e+03 0.000000000000e+00
    2.400000000000e+00 0.000000000000e+00-8.847564458847e-09 6.000000000000e+00
    1.284000000000e+05 4.000000000000e+00
15 19  9  9 13 59 44.0-2.882000990212e-04 2.728484105319e-12 0.000000000000e+00
    2.000000000000e+00 2.240625000000e+01 5.249861534948e-09 3.049228551351e+00
    1.072883605957e-06 1.166295586154e-02 7.933005690575e-06 5.153560974121e+03
    1.367840000000e+05 1.490116119385e-08-2.866347747620e+00-1.192092895508e-07
    9.284008531078e-01 2.084687500000e+02 8.049975849577e-01-8.161054226381e-09
    3.325138505366e-10 1.000000000000e+00 2.070000000000e+03 0.000000000000e+00
    2.400000000000e+00 0.000000000000e+00-1.071020960808e-08 2.000000000000e+00
    1.296000000000e+05 4.000000000000e+00
26 19  9  9 13 59 44.0 3.496557474136e-05 8.867573342286e-12 0.000000000000e+00
    3.000000000000e+00 4.781250000000e+01 4.523759861328e-09-4.400006842746e-01
    2.501532435417e-06 3.873043344356e-03 1.011602580547e-05 5.153669471741e+03
    1.367840000000e+05 6.891787052155e-08-7.019407965031e-01-1.862645149231e-08
    9.502187226410e-01 1.760625000000e+02 1.271299524785e-01-8.048549540109e-09
   -1.932223342001e-10 1.000000000000e+00 2.070000000000e+03 0.000000000000e+00
    2.400000000000e+00 0.000000000000e+00 7.450580596924e-09 3.000000000000e+00
    1.296000000000e+05 4.000000000000e+00
20 19  9  9 13 59 44.0 5.268026143312e-04 1.136868377216e-13 0.000000000000e+00
    7.000000000000e+00-8.903125000000e+01 5.060210778090e-09 1.379816883186e+00
   -4.699453711510e-06 4.812420113012e-03 9.324401617050e-06 5.153628635406e+03
    1.367840000000e+05 5.774199962616e-08 2.342896333711e+00-3.725290298462e-09
    9.317146800105e-01 1.800625000000e+02 2.427226094247e+00-8.251415133132e-09
   -1.246480492344e-10 1.000000000000e+00 2.070000000000e+03 0.000000000000e+00
    2.400000000000e+00 0.000000000000e+00-8.847564458847e-09 7.000000000000e+00
    1.296000000000e+05 4.000000000000e+00
16 19  9  9 13 59 44.0-7.255189120770e-05-3.410605131648e-12 0.000000000000e+00
    2.900000000000e+01 6.456250000000e+01 3.774800092718e-09-1.380406551817e+00
    3.226101398468e-06 1.077634945977e-02 9.987503290176e-06 5.153637546539e+03
    1.367840000000e+05 1.899898052216e-07-5.869504015716e-01-1.378357410431e-07
    9.819977959441e-01 1.915625000000e+02 5.800579405758e-01-7.581744381514e-09
   -3.142988060926e-11 1.000000000000e+00 2.070000000000e+03 0.000000000000e+00
    2.400000000000e+00 0.000000000000e+00-1.071020960808e-08 2.900000000000e+01
    1.296000000000e+05 4.000000000000e+00
 2 19  9  9 14  0  0.0-3.013429231942e-04-8.185452315956e-12 0.000000000000e+00
    5.700000000000e+01-6.193750000000e+01 4.725911138883e-09 2.025133105003e+00
   -3.602355718613e-06 1.912465586793e-02 2.903863787651e-06 5.153534025192e+03
    1.368000000000e+05 1.918524503708e-07 1.354968031720e+00-3.390014171600e-07
    9.556996183709e-01 3.181875000000e+02-1.716883103827e+00-8.113909405467e-09
   -1.467918287546e-10 1.000000000000e+00 2.070000000000e+03 0.000000000000e+00
    3.400000000000e+00 0.000000000000e+00-2.048909664154e-08 5.700000000000e+01
    1.296000000000e+05 4.000000000000e+00
 1 19  9  9 14  0  0.0-1.232223585248e-04-1.239186531166e-11 0.000000000000e+00
    4.100000000000e+01-6.887500000000e+01 4.460185784641e-09 1.762355464859e+00
   -3.624707460403e-06 9.105357923545e-03 3.693625330925e-06 5.153647190094e+03
    1.368000000000e+05-2.011656761169e-07 1.425896656582e+00 1.490116119385e-08
    9.766003889490e-01 3.192500000000e+02 7.628023359734e-01-8.193555580192e-09
   -1.507205638307e-10 1.000000000000e+00 2.070000000000e+03 0.000000000000e+00
    2.400000000000e+00 0.000000000000e+00 5.587935447693e-09 4.100000000000e+01
    1.296000000000e+05 4.000000000000e+00
 5 19  9  9 14  0  0.0-1.271720975637e-06-3.410605131648e-13 0.000000000000e+00
    3.400000000000e+01-6.393750000000e+01 4.566975947165e-09-1.620340329701e+00
   -3.345310688019e-06 5.876993644051e-03 9.695068001747e-06 5.153763759613e+03
    1.368000000000e+05 9.872019290924e-08 2.439833231133e+00-7.450580596924e-08
    9.507460841278e-01 1.869687500000e+02 7.781905605890e-01-7.920687071267e-09
    2.500104139373e-12 1.000000000000e+00 2.070000000000e+03 0.000000000000e+00
    2.400000000000e+00 0.000000000000e+00-1.117587089539e-08 3.400000000000e+01
    1.296000000000e+05 4.000000000000e+00
 3 19  9  9 14  0  0.0-9.240116924047e-06-3.865352482535e-12 0.000000000000e+00
    9.400000000000e+01-7.015625000000e+01 4.345180994230e-09 6.666305447066e-01
   -3.589317202568e-06 2.497085952200e-03 9.639188647270e-06 5.153718841553e+03
    1.368000000000e+05 2.607703208923e-08 2.468116193552e+00 4.656612873077e-08
    9.638835200404e-01 1.940937500000e+02 7.301756259914e-01-7.879971089568e-09
   -3.607293115380e-11 1.000000000000e+00 2.070000000000e+03 0.000000000000e+00
    2.400000000000e+00 0.000000000000e+00 1.862645149231e-09 9.400000000000e+01
    1.296000000000e+05 4.000000000000e+00
 7 19  9  9 14  0  0.0-1.027612015605e-04-7.958078640513e-12 0.000000000000e+00
    8.200000000000e+01-7.062500000000e+00 4.864845497485e-09 1.127880059955e+00
   -2.495944499969e-07 1.315869961400e-02 6.482005119324e-06 5.153727073669e+03
    1.368000000000e+05-2.011656761169e-07-1.708016102801e+00 5.774199962616e-08
    9.543928243720e-01 2.542812500000e+02-2.430967028860e+00-8.282130698273e-09
   -4.489472718845e-10 1.000000000000e+00 2.070000000000e+03 0.000000000000e+00
    2.400000000000e+00 0.000000000000e+00-1.117587089539e-08 8.200000000000e+01
    1.296000000000e+05 4.000000000000e+00
22 19  9  9 14  0  0.0-7.530716247857e-04-3.979039320257e-12 0.000000000000e+00
    4.500000000000e+01-7.931250000000e+01 5.070568352382e-09 3.049268241782e+00
   -4.062429070473e-06 6.944725872017e-03 9.391456842422e-06 5.153717287064e+03
    1.368000000000e+05 1.434236764908e-07 2.391224988165e+00 9.872019290924e-08
    9.284629393510e-01 1.780312500000e+02-1.290329899008e+00-8.124624137493e-09
   -3.285851154604e-11 1.000000000000e+00 2.070000000000e+03 0.000000000000e+00
    2.400000000000e+00 0.000000000000e+00-1.816079020500e-08 4.500000000000e+01
    1.296000000000e+05 4.000000000000e+00
19 19  9  9 14  0  0.0-2.695843577385e-04 5.115907697473e-12 0.000000000000e+00
    2.800000000000e+01 5.512500000000e+01 4.220890102729e-09 3.560191757763e-01
    2.920627593994e-06 9.451577789150e-03 4.781410098076e-06 5.153647630692e+03
    1.368000000000e+05-8.940696716309e-08 4.732256970298e-01 1.303851604462e-08
    9.822976780583e-01 2.999062500000e+02 1.497482095089e+00-8.201770208079e-09
    2.200091642648e-10 1.000000000000e+00 2.070000000000e+03 0.000000000000e+00
    2.400000000000e+00 0.000000000000e+00-1.536682248116e-08 2.800000000000e+01
    1.296000000000e+05 4.000000000000e+00
10 19  9  9 14  0  0.0-4.686275497079e-05-1.512034941697e-11 0.000000000000e+00
    1.000000000000e+02-7.756250000000e+01 4.312679640418e-09-2.246909249018e-01
   -4.215165972710e-06 4.813465406187e-03 1.037865877151e-05 5.153669250488e+03
    1.368000000000e+05 2.421438694000e-08 2.464936816135e+00 9.126961231232e-08
    9.638804523012e-01 1.801562500000e+02-2.731462639651e+00-7.914615389785e-09
   -6.071681481333e-11 1.000000000000e+00 2.070000000000e+03 0.000000000000e+00
    2.400000000000e+00 0.000000000000e+00 1.862645149231e-09 1.000000000000e+02
    1.296000000000e+05 4.000000000000e+00
 9 19  9  9 14  0  0.0-2.698041498661e-05-9.436007530894e-12 0.000000000000e+00
    5.500000000000e+01 2.393750000000e+01 4.791628161975e-09-1.885098898439e+00
    1.139938831329e-06 1.376167521812e-03 7.731840014458e-06 5.153598829269e+03
    1.368000000000e+05 1.490116119385e-08-2.783651667202e+00 9.313225746155e-09
    9.528460181813e-01 2.266250000000e+02 1.683308820843e+00-8.071050477363e-09
    2.750114553310e-10 1.000000000000e+00 2.070000000000e+03 0.000000000000e+00
    2.400000000000e+00 0.000000000000e+00 1.396983861923e-09 5.500000000000e+01
    1.296000000000e+05 4.000000000000e+00
 6 19  9  9 14  0  0.0-5.185836926103e-05-1.239186531166e-11 0.000000000000e+00
    5.100000000000e+01-6.140625000000e+01 4.391254341941e-09 2.095837482078e+00
   -3.121793270111e-06 1.364427036606e-03 3.691762685776e-06 5.153654539108e+03
    1.368000000000e+05 7.450580596924e-09 1.417619110600e+00-8.381903171539e-08
    9.762265899731e-01 3.135312500000e+02-1.142771988149e+00-8.139624762329e-09
   -1.800074980348e-10 1.000000000000e+00 2.070000000000e+03 0.000000000000e+00
    2.400000000000e+00 0.000000000000e+00 4.190951585770e-09 5.100000000000e+01
    1.296000000000e+05 4.000000000000e+00
 8 19  9  9 14  0  0.0-5.862209945917e-06-1.364242052659e-12 0.000000000000e+00
    5.400000000000e+01 8.231250000000e+01 4.444113686602e-09-2.162672246266e+00
    4.196539521217e-06 4.420272889547e-03 5.101785063744e-06 5.153551883698e+03
    1.368000000000e+05-1.396983861923e-07 3.582311722805e-01-7.823109626770e-08
    9.704624425818e-01 2.901562500000e+02-2.277379491940e-01-8.137838973658e-09
    3.196561721055e-10 1.000000000000e+00 2.070000000000e+03 0.000000000000e+00
    2.400000000000e+00 0.000000000000e+00 5.122274160385e-09 5.400000000000e+01
    1.296000000000e+05 4.000000000000e+00
